{
  "type": "FeatureCollection",
  "features": [
    {
      "type": "Feature",
      "properties": {
        "norad_id": 35586,
        "name": "COSMOS 2251 DEB",
        "group": "cosmos-2251-debris",
        "lat": 23.43625061716147,
        "lon": 129.89212989874562,
        "alt_km": 824.0661614764049,
        "timestamp": "2025-12-03T15:48:03.462417+00:00",
        "meta_object_name": "COSMOS 2251 DEB",
        "meta_object_id": "1993-036AMD",
        "meta_epoch": "2025-12-02T16:49:03.133344",
        "meta_mean_motion": 13.52074918,
        "meta_eccentricity": 0.04051153,
        "meta_inclination": 74.0205,
        "meta_ra_of_asc_node": 318.5607,
        "meta_arg_of_pericenter": 196.0051,
        "meta_mean_anomaly": 342.734,
        "meta_ephemeris_type": 0,
        "meta_classification_type": "U",
        "meta_norad_cat_id": 35586,
        "meta_element_set_no": 999,
        "meta_rev_at_epoch": 60246,
        "meta_bstar": 0.00045411914,
        "meta_mean_motion_dot": 4.79e-06,
        "meta_mean_motion_ddot": 0,
        "tle_line1": "1 35586U 93036AMD 25336.70073071  .00000479  00000+0  45412-3 0  9990",
        "tle_line2": "2 35586  74.0205 318.5607 0405115 196.0051 342.7340 13.52074918602466"
      },
      "geometry": {
        "type": "Point",
        "coordinates": [
          129.89212989874562,
          23.43625061716147
        ]
      }
    },
    {
      "type": "Feature",
      "properties": {
        "norad_id": 35587,
        "name": "COSMOS 2251 DEB",
        "group": "cosmos-2251-debris",
        "lat": 73.57019092439475,
        "lon": 152.70455060871208,
        "alt_km": 721.2666252018944,
        "timestamp": "2025-12-03T15:48:03.462426+00:00",
        "meta_object_name": "COSMOS 2251 DEB",
        "meta_object_id": "1993-036AME",
        "meta_epoch": "2025-12-02T13:17:52.139616",
        "meta_mean_motion": 14.71455583,
        "meta_eccentricity": 0.01027177,
        "meta_inclination": 74.0049,
        "meta_ra_of_asc_node": 78.2618,
        "meta_arg_of_pericenter": 268.1186,
        "meta_mean_anomaly": 90.8219,
        "meta_ephemeris_type": 0,
        "meta_classification_type": "U",
        "meta_norad_cat_id": 35587,
        "meta_element_set_no": 999,
        "meta_rev_at_epoch": 66196,
        "meta_bstar": 0.00042147374,
        "meta_mean_motion_dot": 2.801e-05,
        "meta_mean_motion_ddot": 0,
        "tle_line1": "1 35587U 93036AME 25336.55407569  .00002801  00000+0  42147-3 0  9990",
        "tle_line2": "2 35587  74.0049  78.2618 0102717 268.1186  90.8219 14.71455583661966"
      },
      "geometry": {
        "type": "Point",
        "coordinates": [
          152.70455060871208,
          73.57019092439475
        ]
      }
    },
    {
      "type": "Feature",
      "properties": {
        "norad_id": 35593,
        "name": "COSMOS 2251 DEB",
        "group": "cosmos-2251-debris",
        "lat": -72.3921305526087,
        "lon": -119.23338147787358,
        "alt_km": 751.9348927726523,
        "timestamp": "2025-12-03T15:48:03.462435+00:00",
        "meta_object_name": "COSMOS 2251 DEB",
        "meta_object_id": "1993-036AML",
        "meta_epoch": "2025-12-02T08:10:41.646720",
        "meta_mean_motion": 14.25498697,
        "meta_eccentricity": 0.01053488,
        "meta_inclination": 74.0851,
        "meta_ra_of_asc_node": 307.1662,
        "meta_arg_of_pericenter": 315.9582,
        "meta_mean_anomaly": 43.3207,
        "meta_ephemeris_type": 0,
        "meta_classification_type": "U",
        "meta_norad_cat_id": 35593,
        "meta_element_set_no": 999,
        "meta_rev_at_epoch": 84917,
        "meta_bstar": 0.0018161686,
        "meta_mean_motion_dot": 4.526e-05,
        "meta_mean_motion_ddot": 0,
        "tle_line1": "1 35593U 93036AML 25336.34075980  .00004526  00000+0  18162-2 0  9997",
        "tle_line2": "2 35593  74.0851 307.1662 0105348 315.9582  43.3207 14.25498697849174"
      },
      "geometry": {
        "type": "Point",
        "coordinates": [
          -119.23338147787358,
          -72.3921305526087
        ]
      }
    },
    {
      "type": "Feature",
      "properties": {
        "norad_id": 35594,
        "name": "COSMOS 2251 DEB",
        "group": "cosmos-2251-debris",
        "lat": -8.687744253791404,
        "lon": 122.35340064368278,
        "alt_km": 619.0364274900194,
        "timestamp": "2025-12-03T15:48:03.462444+00:00",
        "meta_object_name": "COSMOS 2251 DEB",
        "meta_object_id": "1993-036AMM",
        "meta_epoch": "2025-12-01T02:30:04.449024",
        "meta_mean_motion": 14.8736155,
        "meta_eccentricity": 0.00313469,
        "meta_inclination": 73.8065,
        "meta_ra_of_asc_node": 130.0573,
        "meta_arg_of_pericenter": 241.1394,
        "meta_mean_anomaly": 118.6638,
        "meta_ephemeris_type": 0,
        "meta_classification_type": "U",
        "meta_norad_cat_id": 35594,
        "meta_element_set_no": 999,
        "meta_rev_at_epoch": 88012,
        "meta_bstar": 0.00176297,
        "meta_mean_motion_dot": 0.00016075,
        "meta_mean_motion_ddot": 0,
        "tle_line1": "1 35594U 93036AMM 25335.10421816  .00016075  00000+0  17630-2 0  9995",
        "tle_line2": "2 35594  73.8065 130.0573 0031346 241.1394 118.6638 14.87361550880129"
      },
      "geometry": {
        "type": "Point",
        "coordinates": [
          122.35340064368278,
          -8.687744253791404
        ]
      }
    },
    {
      "type": "Feature",
      "properties": {
        "norad_id": 35602,
        "name": "COSMOS 2251 DEB",
        "group": "cosmos-2251-debris",
        "lat": 2.856378993370024,
        "lon": -157.4426373447906,
        "alt_km": 467.68680047116413,
        "timestamp": "2025-12-03T15:48:03.462453+00:00",
        "meta_object_name": "COSMOS 2251 DEB",
        "meta_object_id": "1993-036AMV",
        "meta_epoch": "2025-12-03T02:23:02.143104",
        "meta_mean_motion": 15.34578381,
        "meta_eccentricity": 0.00909215,
        "meta_inclination": 73.9948,
        "meta_ra_of_asc_node": 202.9376,
        "meta_arg_of_pericenter": 270.9322,
        "meta_mean_anomaly": 244.023,
        "meta_ephemeris_type": 0,
        "meta_classification_type": "U",
        "meta_norad_cat_id": 35602,
        "meta_element_set_no": 999,
        "meta_rev_at_epoch": 89943,
        "meta_bstar": 0.00060534286,
        "meta_mean_motion_dot": 0.00023243,
        "meta_mean_motion_ddot": 0,
        "tle_line1": "1 35602U 93036AMV 25337.09933036  .00023243  00000+0  60534-3 0  9994",
        "tle_line2": "2 35602  73.9948 202.9376 0090921 270.9322 244.0230 15.34578381899436"
      },
      "geometry": {
        "type": "Point",
        "coordinates": [
          -157.4426373447906,
          2.856378993370024
        ]
      }
    },
    {
      "type": "Feature",
      "properties": {
        "norad_id": 35605,
        "name": "COSMOS 2251 DEB",
        "group": "cosmos-2251-debris",
        "lat": 21.38336953930268,
        "lon": 169.69646110277156,
        "alt_km": 493.4490821459749,
        "timestamp": "2025-12-03T15:48:03.462462+00:00",
        "meta_object_name": "COSMOS 2251 DEB",
        "meta_object_id": "1993-036AMY",
        "meta_epoch": "2025-11-25T09:05:01.395168",
        "meta_mean_motion": 15.26251894,
        "meta_eccentricity": 0.00343964,
        "meta_inclination": 73.8732,
        "meta_ra_of_asc_node": 13.9291,
        "meta_arg_of_pericenter": 311.4103,
        "meta_mean_anomaly": 48.4141,
        "meta_ephemeris_type": 0,
        "meta_classification_type": "U",
        "meta_norad_cat_id": 35605,
        "meta_element_set_no": 999,
        "meta_rev_at_epoch": 65706,
        "meta_bstar": 0.0065174874,
        "meta_mean_motion_dot": 0.00175767,
        "meta_mean_motion_ddot": 0,
        "tle_line1": "1 35605U 93036AMY 25329.37848837  .00175767  00000+0  65175-2 0  9997",
        "tle_line2": "2 35605  73.8732  13.9291 0034396 311.4103  48.4141 15.26251894657063"
      },
      "geometry": {
        "type": "Point",
        "coordinates": [
          169.69646110277156,
          21.38336953930268
        ]
      }
    },
    {
      "type": "Feature",
      "properties": {
        "norad_id": 35606,
        "name": "COSMOS 2251 DEB",
        "group": "cosmos-2251-debris",
        "lat": -60.04528994998656,
        "lon": -4.997333378835694,
        "alt_km": 945.326737448022,
        "timestamp": "2025-12-03T15:48:03.462471+00:00",
        "meta_object_name": "COSMOS 2251 DEB",
        "meta_object_id": "1993-036AMZ",
        "meta_epoch": "2025-12-02T20:25:55.310304",
        "meta_mean_motion": 13.41183829,
        "meta_eccentricity": 0.04578752,
        "meta_inclination": 73.8108,
        "meta_ra_of_asc_node": 26.558,
        "meta_arg_of_pericenter": 233.7227,
        "meta_mean_anomaly": 122.0759,
        "meta_ephemeris_type": 0,
        "meta_classification_type": "U",
        "meta_norad_cat_id": 35606,
        "meta_element_set_no": 999,
        "meta_rev_at_epoch": 60907,
        "meta_bstar": 0.0016498172,
        "meta_mean_motion_dot": 1.674e-05,
        "meta_mean_motion_ddot": 0,
        "tle_line1": "1 35606U 93036AMZ 25336.85133461  .00001674  00000+0  16498-2 0  9998",
        "tle_line2": "2 35606  73.8108  26.5580 0457875 233.7227 122.0759 13.41183829609075"
      },
      "geometry": {
        "type": "Point",
        "coordinates": [
          -4.997333378835694,
          -60.04528994998656
        ]
      }
    }
  ]
}